COMMENT,ORIGINATOR,NORAD_CAT_ID,OBJECT_NAME,OBJECT_TYPE,CLASSIFICATION_TYPE,INTLDES,EPOCH,EPOCH_MICROSECONDS,MEAN_MOTION,ECCENTRICITY,INCLINATION,RA_OF_ASC_NODE,ARG_OF_PERICENTER,MEAN_ANOMALY,EPHEMERIS_TYPE,ELEMENT_SET_NO,REV_AT_EPOCH,BSTAR,MEAN_MOTION_DOT,MEAN_MOTION_DDOT,FILE,TLE_LINE0,TLE_LINE1,TLE_LINE2,OBJECT_ID,OBJECT_NUMBER,SEMIMAJOR_AXIS,PERIOD,APOGEE,PERIGEE,DECAYED,date
GENERATED VIA SPACETRACK.ORG API,18 SPCS,48899,SPACEBEE-110,PAYLOAD,U,21059W,2023/3/16 21:39,530336,15.26120934,0.0008734,97.583,211.6536,233.8789,126.1641,0,999,9532,0.0013778,0.00035653,0,3862545,0 SPACEBEE-110,1 48899U 21059W   23075.90217049  .00035653  00000-0  13778-2 0  9994,2 48899  97.5830 211.6536 0008734 233.8789 126.1641 15.26120934 95321,2021-059W,48899,6865.559,94.357,493.42,481.427,0,
GENERATED VIA SPACETRACK.ORG API,18 SPCS,48899,SPACEBEE-110,PAYLOAD,U,21059W,2023/3/17 8:40,359488,15.26152229,0.000879,97.5829,212.1192,232.1093,127.935,0,999,9539,0.0012907,0.00033416,0,3863278,0 SPACEBEE-110,1 48899U 21059W   23076.36113842  .00033416  00000-0  12907-2 0  9999,2 48899  97.5829 212.1192 0008790 232.1093 127.9350 15.26152229 95390,2021-059W,48899,6865.465,94.355,493.364,481.295,0,
GENERATED VIA SPACETRACK.ORG API,18 SPCS,48899,SPACEBEE-110,PAYLOAD,U,21059W,2023/3/17 21:15,66336,15.26194118,0.0008822,97.5829,212.6516,230.3933,129.6527,0,999,9547,0.0014097,0.00036566,0,3863544,0 SPACEBEE-110,1 48899U 21059W   23076.88566049  .00036566  00000-0  14097-2 0  9998,2 48899  97.5829 212.6516 0008822 230.3933 129.6527 15.26194118 95471,2021-059W,48899,6865.339,94.352,493.261,481.147,0,
GENERATED VIA SPACETRACK.ORG API,18 SPCS,48899,SPACEBEE-110,PAYLOAD,U,21059W,2023/3/18 8:16,113920,15.26224172,0.0008825,97.583,213.1174,228.8437,131.204,0,999,9554,0.0013624,0.00035363,0,3864163,0 SPACEBEE-110,1 48899U 21059W   23077.34460780  .00035363  00000-0  13624-2 0  9994,2 48899  97.5830 213.1174 0008825 228.8437 131.2040 15.26224172 95544,2021-059W,48899,6865.249,94.35,493.173,481.055,0,
GENERATED VIA SPACETRACK.ORG API,18 SPCS,48899,SPACEBEE-110,PAYLOAD,U,21059W,2023/3/18 22:25,261632,15.26266114,0.0008856,97.583,213.7163,227.1508,132.8987,0,999,9563,0.0012837,0.00033349,0,3864479,0 SPACEBEE-110,1 48899U 21059W   23077.93466738  .00033349  00000-0  12837-2 0  9995,2 48899  97.5830 213.7163 0008856 227.1508 132.8987 15.26266114 95632,2021-059W,48899,6865.123,94.348,493.068,480.908,0,
GENERATED VIA SPACETRACK.ORG API,18 SPCS,48899,SPACEBEE-110,PAYLOAD,U,21059W,2023/3/19 7:52,895680,15.26296122,0.0008841,97.583,214.1155,225.898,134.1532,0,999,9569,0.0013437,0.0003495,0,3865049,0 SPACEBEE-110,1 48899U 21059W   23078.32803120  .00034950  00000-0  13437-2 0  9995,2 48899  97.5830 214.1155 0008841 225.8980 134.1532 15.26296122 95690,2021-059W,48899,6865.033,94.346,492.968,480.829,0,
GENERATED VIA SPACETRACK.ORG API,18 SPCS,48899,SPACEBEE-110,PAYLOAD,U,21059W,2023/3/19 14:09,262336,15.26318496,0.0008853,97.5831,214.3817,225.0668,134.9852,0,999,9573,0.0014863,0.00038713,0,3865000,0 SPACEBEE-110,1 48899U 21059W   23078.59026924  .00038713  00000-0  14863-2 0  9998,2 48899  97.5831 214.3817 0008853 225.0668 134.9852 15.26318496 95733,2021-059W,48899,6864.966,94.345,492.909,480.754,0,
GENERATED VIA SPACETRACK.ORG API,18 SPCS,48899,SPACEBEE-110,PAYLOAD,U,21059W,2023/3/19 20:27,349056,15.26337241,0.0008839,97.5833,214.6479,224.2026,135.8507,0,999,9577,0.0013775,0.0003588,0,3865354,0 SPACEBEE-110,1 48899U 21059W   23078.85250404  .00035880  00000-0  13775-2 0  9992,2 48899  97.5833 214.6479 0008839 224.2026 135.8507 15.26337241 95775,2021-059W,48899,6864.91,94.344,492.843,480.707,0,
GENERATED VIA SPACETRACK.ORG API,18 SPCS,48899,SPACEBEE-110,PAYLOAD,U,21059W,2023/3/20 7:28,489632,15.26375029,0.0008793,97.584,215.1135,222.4174,137.6385,0,999,9584,0.0014852,0.0003875,0,3865912,0 SPACEBEE-110,1 48899U 21059W   23079.31140613  .00038750  00000-0  14852-2 0  9990,2 48899  97.5840 215.1135 0008793 222.4174 137.6385 15.26375029 95849,2021-059W,48899,6864.797,94.341,492.698,480.625,0,
GENERATED VIA SPACETRACK.ORG API,18 SPCS,48899,SPACEBEE-110,PAYLOAD,U,21059W,2023/3/20 21:38,586400,15.26421515,0.0008779,97.5844,215.7125,220.3625,139.6962,0,999,9593,0.0014553,0.00038018,0,3866077,0 SPACEBEE-110,1 48899U 21059W   23079.90140725  .00038018  00000-0  14553-2 0  9994,2 48899  97.5844 215.7125 0008779 220.3625 139.6962 15.26421515 95935,2021-059W,48899,6864.657,94.338,492.549,480.496,0,
GENERATED VIA SPACETRACK.ORG API,18 SPCS,48899,SPACEBEE-110,PAYLOAD,U,21059W,2023/3/21 8:38,539328,15.26459719,0.0008775,97.5845,216.1784,218.7874,141.2736,0,999,9600,0.0015227,0.00039837,0,3866730,0 SPACEBEE-110,1 48899U 21059W   23080.36028402  .00039837  00000-0  15227-2 0  9992,2 48899  97.5845 216.1784 0008775 218.7874 141.2736 15.26459719 96009,2021-059W,48899,6864.543,94.336,492.431,480.384,0,
GENERATED VIA SPACETRACK.ORG API,18 SPCS,48899,SPACEBEE-110,PAYLOAD,U,21059W,2023/3/21 19:39,530624,15.26496287,0.000879,97.5848,216.6443,217.4828,142.5798,0,999,9607,0.0014542,0.00038075,0,3866953,0 SPACEBEE-110,1 48899U 21059W   23080.81914966  .00038075  00000-0  14542-2 0  9993,2 48899  97.5848 216.6443 0008790 217.4828 142.5798 15.26496287 96071,2021-059W,48899,6864.433,94.334,492.332,480.264,0,
GENERATED VIA SPACETRACK.ORG API,18 SPCS,48899,SPACEBEE-110,PAYLOAD,U,21059W,2023/3/21 22:48,795264,15.26505528,0.0008807,97.5847,216.7774,217.1139,142.9491,0,999,9609,0.0014298,0.00037442,0,3867256,0 SPACEBEE-110,1 48899U 21059W   23080.95025226  .00037442  00000-0  14298-2 0  9995,2 48899  97.5847 216.7774 0008807 217.1139 142.9491 15.26505528 96094,2021-059W,48899,6864.405,94.333,492.316,480.225,0,
GENERATED VIA SPACETRACK.ORG API,18 SPCS,48899,SPACEBEE-110,PAYLOAD,U,21059W,2023/3/22 16:06,198176,15.26569814,0.0008799,97.5849,217.5096,214.8115,145.2549,0,999,9620,0.0016832,0.00044217,0,3867871,0 SPACEBEE-110,1 48899U 21059W   23081.67129859  .00044217  00000-0  16832-2 0  9996,2 48899  97.5849 217.5096 0008799 214.8115 145.2549 15.26569814 96201,2021-059W,48899,6864.213,94.329,492.117,480.038,0,
GENERATED VIA SPACETRACK.ORG API,18 SPCS,48899,SPACEBEE-110,PAYLOAD,U,21059W,2023/3/22 20:49,210400,15.26586386,0.0008795,97.5849,217.7093,214.1932,145.8741,0,999,9623,0.001579,0.0004148,0,3868201,0 SPACEBEE-110,1 48899U 21059W   23081.86794225  .00041480  00000-0  15790-2 0  9993,2 48899  97.5849 217.7093 0008795 214.1932 145.8741 15.26586386 96232,2021-059W,48899,6864.163,94.328,492.065,479.991,0,
GENERATED VIA SPACETRACK.ORG API,18 SPCS,48899,SPACEBEE-110,PAYLOAD,U,21059W,2023/3/23 7:50,929728,15.26621219,0.0008782,97.585,218.1752,212.7544,147.315,0,999,9630,0.001412,0.00037103,0,3868494,0 SPACEBEE-110,1 48899U 21059W   23082.32677002  .00037103  00000-0  14120-2 0  9991,2 48899  97.5850 218.1752 0008782 212.7544 147.3150 15.26621219 96304,2021-059W,48899,6864.059,94.326,491.952,479.896,0,
GENERATED VIA SPACETRACK.ORG API,18 SPCS,48899,SPACEBEE-110,PAYLOAD,U,21059W,2023/3/23 20:25,534368,15.26682825,0.0008705,97.5852,218.708,211.3292,148.7428,0,999,9638,0.0021196,0.00055977,0,3868747,0 SPACEBEE-110,1 48899U 21059W   23082.85112887  .00055977  00000-0  21196-2 0  9994,2 48899  97.5852 218.7080 0008705 211.3292 148.7428 15.26682825 96387,2021-059W,48899,6863.874,94.322,491.714,479.764,0,
GENERATED VIA SPACETRACK.ORG API,18 SPCS,48899,SPACEBEE-110,PAYLOAD,U,21059W,2023/3/23 22:00,447840,15.26692787,0.0008641,97.5853,218.7743,211.368,148.7043,0,999,9639,0.0022319,0.00058987,0,3868816,0 SPACEBEE-110,1 48899U 21059W   23082.91667185  .00058987  00000-0  22319-2 0  9999,2 48899  97.5853 218.7743 0008641 211.3680 148.7043 15.26692787 96396,2021-059W,48899,6863.844,94.322,491.64,479.778,0,
GENERATED VIA SPACETRACK.ORG API,18 SPCS,48899,SPACEBEE-110,PAYLOAD,U,21059W,2023/3/24 9:00,90464,15.26798389,0.0008612,97.5851,219.2406,209.4438,150.6317,0,999,9646,0.0066362,0.00178932,0,3869585,0 SPACEBEE-110,1 48899U 21059W   23083.37546401  .00178932  00000-0  66362-2 0  9996,2 48899  97.5851 219.2406 0008612 209.4438 150.6317 15.26798389 96462,2021-059W,48899,6863.528,94.315,491.303,479.482,0,
GENERATED VIA SPACETRACK.ORG API,18 SPCS,48899,SPACEBEE-110,PAYLOAD,U,21059W,2023/3/24 9:00,90464,15.26798389,0.0008612,97.5851,219.2406,209.4438,150.6317,0,999,9646,0.0066362,0.00178932,0,3869846,0 SPACEBEE-110,1 48899U 21059W   23083.37546401  .00178932  00000-0  66362-2 0  9996,2 48899  97.5851 219.2406 0008612 209.4438 150.6317 15.26798389 96462,2021-059W,48899,6863.528,94.315,491.303,479.482,0,
GENERATED VIA SPACETRACK.ORG API,18 SPCS,48899,SPACEBEE-110,PAYLOAD,U,21059W,2023/3/24 13:43,934048,15.26784962,0.0008597,97.5854,219.4401,208.5628,151.514,0,999,9649,0.0025279,0.00067078,0,3869799,0 SPACEBEE-110,1 48899U 21059W   23083.57208257  .00067078  00000-0  25279-2 0  9992,2 48899  97.5854 219.4401 0008597 208.5628 151.5140 15.26784962 96494,2021-059W,48899,6863.568,94.316,491.333,479.532,0,
GENERATED VIA SPACETRACK.ORG API,18 SPCS,48899,SPACEBEE-110,PAYLOAD,U,21059W,2023/3/24 21:35,626528,15.26811664,0.0008578,97.5854,219.7731,207.3612,152.7176,0,999,9654,0.0016312,0.00043154,0,3870109,0 SPACEBEE-110,1 48899U 21059W   23083.89977577  .00043154  00000-0  16312-2 0  9992,2 48899  97.5854 219.7731 0008578 207.3612 152.7176 15.26811664 96540,2021-059W,48899,6863.488,94.314,491.24,479.465,0,
GENERATED VIA SPACETRACK.ORG API,18 SPCS,48899,SPACEBEE-110,PAYLOAD,U,21059W,2023/3/24 21:35,626528,15.26811664,0.0008578,97.5854,219.7731,207.3612,152.7176,0,999,9654,0.0016312,0.00043154,0,3870412,0 SPACEBEE-110,1 48899U 21059W   23083.89977577  .00043154  00000-0  16312-2 0  9992,2 48899  97.5854 219.7731 0008578 207.3612 152.7176 15.26811664 96540,2021-059W,48899,6863.488,94.314,491.24,479.465,0,
